IRIDIUM 71 [-]          
1 25320U 98026B   18055.36223801  .00000083  00000-0  20304-4 0  9995
2 25320  86.4000 135.4665 0001465 159.5792 200.5465 14.39134391 39738
IRIDIUM 70 [+]          
1 25342U 98032A   18055.55996776  .00000122  00000-0  36612-4 0  9998
2 25342  86.3964 118.8396 0002038  95.3763 264.7666 14.34221154 35277
IRIDIUM 72 [+]          
1 25343U 98032B   18055.26820338  .00000111  00000-0  32554-4 0  9996
2 25343  86.3958 118.5566 0002168  97.6484 262.4958 14.34219927 35236
IRIDIUM 73 [-]          
1 25344U 98032C   18055.53591174  .00000112  00000-0  24153-4 0  9997
2 25344  86.4394  96.3386 0001777  82.3550 277.7856 14.49096753 44091
IRIDIUM 75 [+]          
1 25346U 98032E   18055.27455088  .00000112  00000-0  33097-4 0  9990
2 25346  86.3962 118.8155 0002185  96.5436 263.6009 14.34221160 35800
IRIDIUM 76 [+]          
1 25432U 98048B   18055.34783419  .00000161  00000-0  50292-4 0  9993
2 25432  86.4003 150.1100 0002068  93.2444 266.8988 14.34222865 21736
IRIDIUM 82 [-]          
1 25467U 98051A   18055.53819604  .00000771  00000-0  56253-4 0  9992
2 25467  86.3973 265.3588 0180651 211.0068 148.0399 14.89741968 24409
IRIDIUM 81 [+]          
1 25468U 98051B   18055.59258786  .00000064  00000-0  14432-4 0  9995
2 25468  86.4200 276.3100 0002164  82.6026 277.5418 14.38614414 19137
IRIDIUM 80 [+]          
1 25469U 98051C   18055.53212053  .00000010  00000-0 -34671-5 0  9997
2 25469  86.3932 276.5884 0002107 100.4961 322.3604 14.34219118 19004
IRIDIUM 2 [-]           
1 25527U 98066A   18055.58673482  .00001146  00000-0  55790-4 0  9994
2 25527  85.5274 243.1701 0006976 234.5954 125.4635 15.17200372 56131
IRIDIUM 86 [+]          
1 25528U 98066B   18055.46581910 -.00000063  00000-0 -29533-4 0  9991
2 25528  86.3924 244.2848 0001287 112.1862 247.9470 14.34216378 15522
IRIDIUM 84 [+]          
1 25530U 98066D   18055.49753484 -.00000061  00000-0 -28729-4 0  9998
2 25530  86.3925 244.4406 0001952  85.4321 274.7098 14.34216423 13162
IRIDIUM 83 [+]          
1 25531U 98066E   18055.52927144 -.00000066  00000-0 -30810-4 0  9998
2 25531  86.3929 244.5632 0002017  86.4164 273.7262 14.34215152 10525
IRIDIUM 20 [+]          
1 25577U 98074A   18055.37949599  .00000161  00000-0  50526-4 0  9998
2 25577  86.4003 150.0151 0002120  98.9332 261.2104 14.34223617  4587
IRIDIUM 11 [+]          
1 25578U 98074B   18055.41409316  .00000159  00000-0  49792-4 0  9992
2 25578  86.4009 150.2147 0002368  81.8994 324.9941 14.34218036 13552
IRIDIUM 14 [+]          
1 25777U 99032A   18055.57264719  .00000016  00000-0 -13894-5 0  9999
2 25777  86.3959 118.5181 0002019  96.0810 264.0616 14.34219881990858
IRIDIUM 21 [+]          
1 25778U 99032B   18055.26186350  .00000120  00000-0  35618-4 0  9992
2 25778  86.3958 118.6634 0002235  92.5165 267.6287 14.34221342984240
IRIDIUM 91 [+]          
1 27372U 02005A   18055.57953737  .00000141  00000-0  43175-4 0  9993
2 27372  86.4016 181.6941 0001676  91.2394 268.8994 14.34213279847805
IRIDIUM 90 [B]          
1 27373U 02005B   18055.47372405 -.00000048  00000-0 -20391-4 0  9993
2 27373  86.4439 244.5806 0001854  85.9479 274.1933 14.42946211847739
IRIDIUM 94 [+]          
1 27374U 02005C   18055.35416073  .00000160  00000-0  50172-4 0  9994
2 27374  86.4003 150.3611 0001723  85.5440 340.5474 14.34224849852094
IRIDIUM 95 [+]          
1 27375U 02005D   18055.40837758  .00000125  00000-0  37645-4 0  9999
2 27375  86.4011 181.7784 0002081  73.8198 286.3226 14.34215423847062
IRIDIUM 96 [P]          
1 27376U 02005E   18055.47484710  .00020840 -82033-6  23955-3 0  9990
2 27376  86.3829 209.7658 0314345 279.0926  77.4877 15.19763740852812
IRIDIUM 97 [+]          
1 27450U 02031A   18055.51955712 -.00000066  00000-0 -30524-4 0  9990
2 27450  86.3975 213.4169 0001819  88.6470 271.4934 14.34211216826399
IRIDIUM 98 [+]          
1 27451U 02031B   18055.10769778 -.00000088  00000-0 -38405-4 0  9991
2 27451  86.3923 276.8457 0001727  96.6286 263.5106 14.34218880827419
